[{"OBJECT_NAME":"STARLINK-31296","OBJECT_ID":"2024-020D","EPOCH":"2026-03-09T21:13:17.648256","MEAN_MOTION":15.30115201,"ECCENTRICITY":0.00013739,"INCLINATION":53.16,"RA_OF_ASC_NODE":295.7482,"ARG_OF_PERICENTER":95.0661,"MEAN_ANOMALY":265.0496,"EPHEMERIS_TYPE":0,"CLASSIFICATION_TYPE":"U","NORAD_CAT_ID":58879,"ELEMENT_SET_NO":999,"REV_AT_EPOCH":11846,"BSTAR":0.0012468524,"MEAN_MOTION_DOT":0.00036654,"MEAN_MOTION_DDOT":0},{"OBJECT_NAME":"OBJECT D","OBJECT_ID":"2024-092D","EPOCH":"2026-03-09T21:12:33.501312","MEAN_MOTION":15.33078357,"ECCENTRICITY":0.00083397,"INCLINATION":97.6418,"RA_OF_ASC_NODE":198.2302,"ARG_OF_PERICENTER":141.9853,"MEAN_ANOMALY":218.1979,"EPHEMERIS_TYPE":0,"CLASSIFICATION_TYPE":"U","NORAD_CAT_ID":59776,"ELEMENT_SET_NO":999,"REV_AT_EPOCH":10051,"BSTAR":0.00076511005,"MEAN_MOTION_DOT":0.00024443,"MEAN_MOTION_DDOT":0}]
